NORAD_CAT_ID,OBJECT_NAME,OBJECT_TYPE,EPOCH,MEAN_MOTION,ECCENTRICITY,INCLINATION,RA_OF_ASC_NODE,ARG_OF_PERICENTER,MEAN_ANOMALY,BSTAR,MEAN_MOTION_DOT,MEAN_MOTION_DDOT,TLE_LINE0,TLE_LINE1,TLE_LINE2,SEMIMAJOR_AXIS,PERIOD,APOGEE,PERIGEE,DECAYED
54007.0,STARLINK-5132,PAYLOAD,2023-01-21 11:49:06,15.08864141,0.0001415,53.2175,305.7775,90.1678,269.9476,0.0018167,0.00028762,0.0,0 STARLINK-5132,1 54007U 22125AV  23021.49243137  .00028762  00000-0  18167-2 0  9999,2 54007  53.2175 305.7775 0001415  90.1678 269.9476 15.08864141 16937,6917.807,95.436,540.65,538.693,0.0
54007.0,STARLINK-5132,PAYLOAD,2023-01-22 02:07:33,15.08869163,0.0001069,53.2164,303.1026,91.6452,268.4662,0.002335,0.00037099,0.0,0 STARLINK-5132,1 54007U 22125AV  23022.08858796  .00037099  00000-0  23350-2 0  9991,2 54007  53.2164 303.1026 0001069  91.6452 268.4662 15.08869163 17028,6917.791,95.436,540.396,538.9169999999999,0.0
54007.0,STARLINK-5132,PAYLOAD,2023-01-22 18:01:25,15.08837569,0.000134,53.2171,300.1294,67.3443,292.769,-9.0725e-06,-4.32e-06,0.0,0 STARLINK-5132,1 54007U 22125AV  23022.75099041 -.00000432  00000-0 -90725-5 0  9991,2 54007  53.2171 300.1294 0001340  67.3443 292.7690 15.08837569 17129,6917.888000000001,95.438,540.68,538.826,0.0
54007.0,STARLINK-5132,PAYLOAD,2023-01-23 03:33:44,15.08848394,0.0001279,53.2165,298.3447,67.2121,292.9006,0.0024778,0.00039376,0.0,0 STARLINK-5132,1 54007U 22125AV  23023.14843397  .00039376  00000-0  24778-2 0  9995,2 54007  53.2165 298.3447 0001279  67.2121 292.9006 15.08848394 17180,6917.855,95.437,540.605,538.835,0.0
54007.0,STARLINK-5132,PAYLOAD,2023-01-23 11:30:40,15.08848156,0.0001299,53.2165,296.8578,77.3706,282.7432,0.0016098,0.00025431,0.0,0 STARLINK-5132,1 54007U 22125AV  23023.47963557  .00025431  00000-0  16098-2 0  9995,2 54007  53.2165 296.8578 0001299  77.3706 282.7432 15.08848156 17233,6917.855,95.437,540.619,538.822,0.0
54007.0,STARLINK-5132,PAYLOAD,2023-01-24 00:13:45,15.08853943,0.0001358,53.2168,294.4771,86.8177,273.297,0.0013961,0.00022009,0.0,0 STARLINK-5132,1 54007U 22125AV  23024.00955463  .00022009  00000-0  13961-2 0  9996,2 54007  53.2168 294.4771 0001358  86.8177 273.2970 15.08853943 17319,6917.838000000001,95.437,540.6419999999999,538.763,0.0
54007.0,STARLINK-5132,PAYLOAD,2023-01-25 03:15:18,15.08854854,0.0001004999999999,53.2159,289.4239,105.2398,254.8705,0.00094837,0.00014844,0.0,0 STARLINK-5132,1 54007U 22125AV  23025.13563107  .00014844  00000-0  94837-3 0  9991,2 54007  53.2159 289.4239 0001005 105.2398 254.8705 15.08854854 17483,6917.835,95.437,540.395,539.005,0.0
54007.0,STARLINK-5132,PAYLOAD,2023-01-25 17:33:47,15.08840655,0.0001281,53.2167,286.7449,109.8082,250.3049,0.00050935,7.828e-05,0.0,0 STARLINK-5132,1 54007U 22125AV  23025.73179442  .00007828  00000-0  50935-3 0  9997,2 54007  53.2167 286.7449 0001281 109.8082 250.3049 15.08840655 17577,6917.878000000001,95.438,540.63,538.857,0.0
54007.0,STARLINK-5132,PAYLOAD,2023-01-26 03:06:05,15.08851384,0.00011,53.2161,284.9618,77.0964,283.0151,0.0012255,0.00019276,0.0,0 STARLINK-5132,1 54007U 22125AV  23026.12923531  .00019276  00000-0  12255-2 0  9999,2 54007  53.2161 284.9618 0001100  77.0964 283.0151 15.08851384 17583,6917.846,95.437,540.472,538.95,0.0
54007.0,STARLINK-5132,PAYLOAD,2023-01-27 01:21:29,15.08854311,0.0001136,53.216,280.7977,79.7668,280.3452,0.00068755,0.00010676,0.0,0 STARLINK-5132,1 54007U 22125AV  23027.05659239  .00010676  00000-0  68755-3 0  9995,2 54007  53.2160 280.7977 0001136  79.7668 280.3452 15.08854311 17771,6917.837,95.437,540.488,538.9159999999999,0.0
54007.0,STARLINK-5132,PAYLOAD,2023-01-27 20:26:07,15.08835043,0.000127,53.2157,277.2285,83.3301,276.7835,-2.0207e-05,-6.09e-06,0.0,0 STARLINK-5132,1 54007U 22125AV  23027.85147796 -.00000609  00000-0 -20207-4 0  9991,2 54007  53.2157 277.2285 0001270  83.3301 276.7835 15.08835043 17847,6917.896,95.438,540.639,538.882,0.0
54007.0,STARLINK-5132,PAYLOAD,2023-01-27 23:36:53,15.08839216,0.0001343,53.2169,276.635,77.962,282.1522,6.0438e-05,6.74e-06,0.0,0 STARLINK-5132,1 54007U 22125AV  23027.98395767  .00000674  00000-0  60438-4 0  9998,2 54007  53.2169 276.6350 0001343  77.9620 282.1522 15.08839216 17918,6917.883000000001,95.438,540.677,538.819,0.0
54007.0,STARLINK-5132,PAYLOAD,2023-01-28 20:16:54,15.088432,0.0001464,53.2177,272.7723,95.3113,264.8047,0.00014346,1.996e-05,0.0,0 STARLINK-5132,1 54007U 22125AV  23028.84507826  .00001996  00000-0  14346-3 0  9999,2 54007  53.2177 272.7723 0001464  95.3113 264.8047 15.08843200 17998,6917.871,95.437,540.748,538.723,0.0
54007.0,STARLINK-5132,PAYLOAD,2023-01-29 01:03:04,15.08847821,0.0001472,53.2167,271.8791,90.6067,269.5094,0.00035023,5.292e-05,0.0,0 STARLINK-5132,1 54007U 22125AV  23029.04379751  .00005292  00000-0  35023-3 0  9994,2 54007  53.2167 271.8791 0001472  90.6067 269.5094 15.08847821 18074,6917.856,95.437,540.74,538.703,0.0
54007.0,STARLINK-5132,PAYLOAD,2023-01-29 16:56:55,15.08841515,0.0001358,53.2153,268.9054,92.2043,267.9104,0.00016699,2.371e-05,0.0,0 STARLINK-5132,1 54007U 22125AV  23029.70619985  .00002371  00000-0  16699-3 0  9996,2 54007  53.2153 268.9054 0001358  92.2043 267.9104 15.08841515 18172,6917.876,95.437,540.68,538.801,0.0
54007.0,STARLINK-5132,PAYLOAD,2023-01-29 20:07:41,15.08841746,0.0001303,53.2157,268.3108,89.4727,270.6414,0.00016092,2.274e-05,0.0,0 STARLINK-5132,1 54007U 22125AV  23029.83867994  .00002274  00000-0  16092-3 0  9994,2 54007  53.2157 268.3108 0001303  89.4727 270.6414 15.08841746 18145,6917.875,95.437,540.641,538.839,0.0
54007.0,STARLINK-5132,PAYLOAD,2023-01-30 00:53:52,15.08800748,0.0001281,53.2151,267.4184,87.8003,272.3136,-0.00092834,-0.00015016,0.0,0 STARLINK-5132,1 54007U 22125AV  23030.03741212 -.00015016  00000-0 -92834-3 0  9990,2 54007  53.2151 267.4184 0001281  87.8003 272.3136 15.08800748 18223,6918.0,95.44,540.752,538.979,0.0
54007.0,STARLINK-5132,PAYLOAD,2023-01-30 18:23:07,15.08836881,0.0001465,53.2156,264.1472,97.32,262.7959,0.00028621,4.27e-05,0.0,0 STARLINK-5132,1 54007U 22125AV  23030.76605835  .00004270  00000-0  28621-3 0  9991,2 54007  53.2156 264.1472 0001465  97.3200 262.7959 15.08836881 18336,6917.89,95.438,540.768,538.741,0.0
54007.0,STARLINK-5132,PAYLOAD,2023-01-30 21:33:53,15.08838089,0.0001379,53.2154,263.5522,95.3513,264.7637,0.00032029,4.813e-05,0.0,0 STARLINK-5132,1 54007U 22125AV  23030.89853851  .00004813  00000-0  32029-3 0  9998,2 54007  53.2154 263.5522 0001379  95.3513 264.7637 15.08838089 18306,6917.886,95.438,540.705,538.797,0.0
54007.0,STARLINK-5132,PAYLOAD,2023-01-31 00:44:39,15.0884279,0.0001415,53.2156,262.9572,95.8488,264.2666,0.00021783,3.181e-05,0.0,0 STARLINK-5132,1 54007U 22125AV  23031.03101544  .00003181  00000-0  21783-3 0  9992,2 54007  53.2156 262.9572 0001415  95.8488 264.2666 15.08842790 18326,6917.872,95.437,540.716,538.758,0.0
54007.0,STARLINK-5132,PAYLOAD,2023-01-31 21:24:39,15.08858964,0.0001271,53.2153,259.0918,85.9619,274.1518,0.00045549,6.972e-05,0.0,0 STARLINK-5132,1 54007U 22125AV  23031.89212628  .00006972  00000-0  45549-3 0  9999,2 54007  53.2153 259.0918 0001271  85.9619 274.1518 15.08858964 18450,6917.822,95.436,540.567,538.808,0.0
54007.0,STARLINK-5132,PAYLOAD,2023-02-01 00:35:25,15.08863093,0.0001273,53.2152,258.4969,87.1246,272.9892,0.00050275,7.727e-05,0.0,0 STARLINK-5132,1 54007U 22125AV  23032.02460341  .00007727  00000-0  50275-3 0  9993,2 54007  53.2152 258.4969 0001273  87.1246 272.9892 15.08863093 18528,6917.81,95.436,540.555,538.794,0.0
54007.0,STARLINK-5132,PAYLOAD,2023-02-01 10:07:45,15.08844712,0.0001492,53.2143,256.7123,88.3303,271.786,0.0004545,6.954e-05,0.0,0 STARLINK-5132,1 54007U 22125AV  23032.42205104  .00006954  00000-0  45450-3 0  9991,2 54007  53.2143 256.7123 0001492  88.3303 271.7860 15.08844712 18586,6917.866,95.437,540.763,538.699,0.0
54007.0,STARLINK-5132,PAYLOAD,2023-02-02 14:44:42,15.08817357,0.0001652,53.2158,251.3588,94.8727,265.2454,-0.00031699,-5.326e-05,0.0,0 STARLINK-5132,1 54007U 22125AV  23033.61438385 -.00005326  00000-0 -31699-3 0  9996,2 54007  53.2158 251.3588 0001652  94.8727 265.2454 15.08817357 18715,6917.95,95.439,540.957,538.672,0.0
54007.0,STARLINK-5132,PAYLOAD,2023-02-03 00:17:01,15.08828747,0.0001702,53.2131,249.5761,89.8306,270.2881,-7.4847e-05,-1.479e-05,0.0,0 STARLINK-5132,1 54007U 22125AV  23034.01182215 -.00001479  00000-0 -74847-4 0  9997,2 54007  53.2131 249.5761 0001702  89.8306 270.2881 15.08828747 18828,6917.915,95.438,540.957,538.602,0.0
54007.0,STARLINK-5132,PAYLOAD,2023-02-03 14:35:29,15.0884027,0.0001465,53.2144,246.8993,90.7222,269.3938,0.00027095,4.027e-05,0.0,0 STARLINK-5132,1 54007U 22125AV  23034.60797941  .00004027  00000-0  27095-3 0  9992,2 54007  53.2144 246.8993 0001465  90.7222 269.3938 15.08840270 18864,6917.88,95.438,540.758,538.731,0.0
54007.0,STARLINK-5132,PAYLOAD,2023-02-04 06:29:20,15.08862976,0.0001472,53.2141,243.9261,88.8178,271.2983,0.00087404,0.00013658,0.0,0 STARLINK-5132,1 54007U 22125AV  23035.27037768  .00013658  00000-0  87404-3 0  9990,2 54007  53.2141 243.9261 0001472  88.8178 271.2983 15.08862976 19010,6917.81,95.436,540.693,538.657,0.0
54007.0,STARLINK-5132,PAYLOAD,2023-02-04 14:26:15,15.08868305,0.0001418,53.2144,242.4391,89.5499,270.5656,0.00066879,0.0001038,0.0,0 STARLINK-5132,1 54007U 22125AV  23035.60157142  .00010380  00000-0  66879-3 0  9998,2 54007  53.2144 242.4391 0001418  89.5499 270.5656 15.08868305 19016,6917.794,95.436,540.64,538.678,0.0
54007.0,STARLINK-5132,PAYLOAD,2023-02-04 20:47:47,15.08872398,0.0001399,53.2146,241.2495,89.7238,270.3914,0.00058483,9.04e-05,0.0,0 STARLINK-5132,1 54007U 22125AV  23035.86652562  .00009040  00000-0  58483-3 0  9995,2 54007  53.2146 241.2495 0001399  89.7238 270.3914 15.08872398 19057,6917.781,95.436,540.614,538.679,0.0
54007.0,STARLINK-5132,PAYLOAD,2023-02-04 23:58:33,15.08875568,0.0001401,53.2146,240.6547,89.824,270.2912,0.00059322,9.175e-05,0.0,0 STARLINK-5132,1 54007U 22125AV  23035.99900232  .00009175  00000-0  59322-3 0  9991,2 54007  53.2146 240.6547 0001401  89.8240 270.2912 15.08875568 19123,6917.772,95.435,540.606,538.667,0.0
